[
    {
        "Altitude(m)": 617719.7811427072,
        "Argument of Periapsis(deg)": 0.0,
        "Eccentricity": 0.0,
        "Inclination(deg)": 60.0,
        "Latitude(deg)": -41.10266771795477,
        "Longitude(deg)": -134.90543955937568,
        "Mean Anomaly(deg)": 229.09090000000003,
        "RAAN(deg)": 114.99999999999999,
        "Satellite Name": "Test1 520",
        "Satellite Number": 520,
        "Semi-Major Axis(m)": 6980739.136638005,
        "Time(s)": 0
    },
    {
        "Altitude(m)": 617911.3173945437,
        "Argument of Periapsis(deg)": 0.00010418945913296404,
        "Eccentricity": 0.0,
        "Inclination(deg)": 60.0,
        "Latitude(deg)": -41.56586056958118,
        "Longitude(deg)": -134.4010342165025,
        "Mean Anomaly(deg)": 229.71100614546188,
        "RAAN(deg)": 114.99957995086024,
        "Satellite Name": "Test1 520",
        "Satellite Number": 520,
        "Semi-Major Axis(m)": 6980739.136638005,
        "Time(s)": 10
    }
]